[{"OBJECT_NAME":"ONEWEB-0560","OBJECT_ID":"2023-004F","EPOCH":"2026-03-09T19:52:45.069024","MEAN_MOTION":13.18685993,"ECCENTRICITY":0.0001943,"INCLINATION":87.9239,"RA_OF_ASC_NODE":355.1998,"ARG_OF_PERICENTER":83.3274,"MEAN_ANOMALY":276.8079,"EPHEMERIS_TYPE":0,"CLASSIFICATION_TYPE":"U","NORAD_CAT_ID":55145,"ELEMENT_SET_NO":999,"REV_AT_EPOCH":15661,"BSTAR":1.8602187e-5,"MEAN_MOTION_DOT":2.0e-7,"MEAN_MOTION_DDOT":0},{"OBJECT_NAME":"SL-14 DEB","OBJECT_ID":"1991-056CY","EPOCH":"2026-03-08T18:48:48.336192","MEAN_MOTION":13.23680367,"ECCENTRICITY":0.00275951,"INCLINATION":82.5758,"RA_OF_ASC_NODE":199.9582,"ARG_OF_PERICENTER":276.4141,"MEAN_ANOMALY":83.3844,"EPHEMERIS_TYPE":0,"CLASSIFICATION_TYPE":"U","NORAD_CAT_ID":45654,"ELEMENT_SET_NO":999,"REV_AT_EPOCH":29129,"BSTAR":0.0015961845,"MEAN_MOTION_DOT":6.91e-6,"MEAN_MOTION_DDOT":0}]
